M2 PATHFINDER           
1 45727U 20037E   26203.09120749  .00002244  00000+0  16329-3 0  9997
2 45727  97.8143  34.7182 0012283  40.4728 319.7410 15.04811228330749
NETSAT-4                
1 46504U 20068U   26202.26981883  .00013816  00000+0  29595-3 0  9993
2 46504  97.8612 213.2778 0005501 172.2296 187.9038 15.44889408321030
NETSAT-3                
1 46505U 20068V   26203.01472178  .00019756  00000+0  43820-3 0  9996
2 46505  97.8664 212.2581 0004660 184.8573 175.2630 15.43774416321052
NETSAT-1                
1 46506U 20068W   26202.94545696  .00012945  00000+0  37932-3 0  9994
2 46506  97.8765 206.0946 0002955 224.6568 135.4436 15.35353606320633
NETSAT-2                
1 46507U 20068X   26202.90586135  .00024350  00000+0  47723-3 0  9996
2 46507  97.8624 213.9959 0003149 182.0467 178.0769 15.47372394321103
GREENCUBE (IO-117)      
1 53109U 22080E   26202.26867320 -.00000003  00000+0  00000+0 0  9998
2 53109  70.1384 286.3946 0009377 282.6707  77.2904  6.42583331 94253
SITRO-AIS 5 (KATYS)     
1 57176U 23091L   26203.25962370  .00012909  00000+0  44394-3 0  9995
2 57176  97.5039 267.5071 0009941 346.4977  13.5996 15.30172036169706
SITRO-AIS 6 (CHIRKIN)   
1 57192U 23091AC  26203.25540147  .00010501  00000+0  40407-3 0  9994
2 57192  97.5047 266.4326 0010443 351.2765   8.8291 15.26525884169637
SITRO-AIS 8 (ANOKHIN)   
1 57193U 23091AD  26203.27902119  .00014584  00000+0  45934-3 0  9993
2 57193  97.5035 269.2620 0008820 341.1495  18.9419 15.32986636169825
SITRO-AIS 7 (FARTUSHNIY)
1 57194U 23091AE  26203.26590696  .00010114  00000+0  39315-3 0  9997
2 57194  97.5043 266.2494 0010378 352.6408   7.4677 15.26197243169621
SITRO-AIS 10 (BURDAEV)  
1 57199U 23091AK  26203.22388126  .00022692  00000+0  57322-3 0  9993
2 57199  97.5060 274.6322 0004472 308.9922  51.0925 15.39815223170151
SITRO-AIS 9 (SHCHUKIN)  
1 57201U 23091AM  26203.26177309  .00021243  00000+0  54600-3 0  9997
2 57201  97.5057 274.3725 0004685 309.4149  50.6681 15.39296707170141
SITRO-AIS 12 (SMIRENNIY)
1 57204U 23091AQ  26203.24570242  .00020952  00000+0  53342-3 0  9999
2 57204  97.5069 274.8456 0004345 301.0990  58.9829 15.39592743170164
SITRO-AIS 11 (SHEFFER)  
1 57208U 23091AU  26203.24917924  .00021471  00000+0  53855-3 0  9991
2 57208  97.5068 275.1184 0004296 300.3880  59.6941 15.40042954170185
SITRO-AIS 25            
1 59066U 24039R   26203.28118772  .00003096  00000+0  24180-3 0  9998
2 59066  95.3885 259.2078 0143482 204.5110 154.9251 14.93671927129967
SITRO-AIS 26            
1 59067U 24039S   26203.28741193  .00003380  00000+0  26495-3 0  9995
2 59067  95.3886 259.1023 0143819 205.1022 154.3167 14.93462057129952
SITRO-AIS 27            
1 59068U 24039T   26203.31473664  .00004618  00000+0  35771-3 0  9997
2 59068  95.3894 259.4091 0142831 203.4591 156.0078 14.93892393129988
SITRO-AIS 28            
1 59071U 24039U   26203.29139027  .00003908  00000+0  30290-3 0  9992
2 59071  95.3887 259.4424 0142828 203.4345 156.0331 14.93920834129981
GRBBETA                 
1 60237U 24128C   26203.19366322  .00003116  00000+0  21945-3 0  9994
2 60237  61.9898  93.4263 0036122 142.1636 218.2007 15.06841666111540
OOV-CUBE (TUBSAT-30)    
1 60240U 24128F   26203.25313467  .00001541  00000+0  12811-3 0  9999
2 60240  61.9942 103.2884 0040191 141.6330 218.7632 15.02894414111385
ROBUSTA-3A (MEDITERRAN*)
1 60243U 24128J   26203.25461599  .00007446  00000+0  43631-3 0  9996
2 60243  61.9863  84.1966 0037085 135.3056 225.1039 15.12055488111723
LASARSAT                
1 62391U 24247Q   26202.06206775  .00027288  00000+0  50950-3 0  9993
2 62391  44.9738  71.5646 0008248 202.6776 157.3752 15.48302336 88561
CROCUBE                 
1 62394U 24247T   26202.65944481  .00041735  00000+0  71515-3 0  9997
2 62394  44.9713  64.9220 0008646 212.7388 147.2968 15.50548927 88696
FORESAIL-1 PRIME        
1 66778U 25276DS  26203.17716175  .00003851  00000+0  18738-3 0  9990
2 66778  97.4184 275.8111 0002318  27.6529 332.4829 15.18978526 35718
KNACKSAT-2              
1 67683U 98067XZ  26203.29327371  .00059126  00000+0  63977-3 0  9994
2 67683  51.6273 117.4838 0007645 351.5351   8.5513 15.62970519 25760
